start=new Date('2022-07-30T00:00:00.000Z').valueOf();
sats=[{"DECAY_DATE":null,"ELEMENT_SET_NO":"999","OBJECT_NAME":"STARLINK-3551","EPOCH":"2022-07-29T22:00:00.999936","RCS_SIZE":"LARGE","EPHEMERIS_TYPE":"0","RA_OF_ASC_NODE":"159.3282","CENTER_NAME":"EARTH","TLE_LINE2":"2 51887  53.2165 159.3282 0002369  56.5814 290.8377 15.08847419  1309","REF_FRAME":"TEME","MEAN_MOTION_DDOT":"0.0000000000000","MEAN_MOTION":"15.08847419","LAUNCH_DATE":"2022-03-03","GP_ID":"209133695","APOAPSIS":"541.362","ARG_OF_PERICENTER":"56.5814","PERIOD":"95.437","TLE_LINE1":"1 51887U 22022AM  22210.91667824 -.00004410  00000-0 -25908-3 0  9995","OBJECT_ID":"2022-022AM","INCLINATION":"53.2165","CLASSIFICATION_TYPE":"U","NORAD_CAT_ID":"51887","OBJECT_TYPE":"PAYLOAD","SEMIMAJOR_AXIS":"6917.858","ECCENTRICITY":"0.00023690","FILE":"3524848","PERIAPSIS":"538.084","COUNTRY_CODE":"US","SITE":"AFETR","MEAN_ELEMENT_THEORY":"SGP4","REV_AT_EPOCH":"130","MEAN_MOTION_DOT":"-0.00004410","BSTAR":"-0.00025908000000","MEAN_ANOMALY":"290.8377","TIME_SYSTEM":"UTC"},{"LAUNCH_DATE":"2022-03-03","GP_ID":"209133945","MEAN_MOTION_DDOT":"0.0000000000000","MEAN_MOTION":"15.08853066","OBJECT_ID":"2022-022AN","ARG_OF_PERICENTER":"61.6793","APOAPSIS":"541.325","TLE_LINE1":"1 51888U 22022AN  22210.91667824 -.00004158  00000-0 -24316-3 0  9997","PERIOD":"95.437","FILE":"3524848","PERIAPSIS":"538.086","ECCENTRICITY":"0.00023410","COUNTRY_CODE":"US","CLASSIFICATION_TYPE":"U","INCLINATION":"53.2166","NORAD_CAT_ID":"51888","OBJECT_TYPE":"PAYLOAD","SEMIMAJOR_AXIS":"6917.840","MEAN_MOTION_DOT":"-0.00004158","BSTAR":"-0.00024316000000","TIME_SYSTEM":"UTC","MEAN_ANOMALY":"245.7640","MEAN_ELEMENT_THEORY":"SGP4","SITE":"AFETR","REV_AT_EPOCH":"130","ELEMENT_SET_NO":"999","DECAY_DATE":null,"EPOCH":"2022-07-29T22:00:00.999936","RCS_SIZE":"LARGE","OBJECT_NAME":"STARLINK-3536","CENTER_NAME":"EARTH","EPHEMERIS_TYPE":"0","RA_OF_ASC_NODE":"159.3271","REF_FRAME":"TEME","TLE_LINE2":"2 51888  53.2166 159.3271 0002341  61.6793 245.7640 15.08853066  1309"},{"TLE_LINE2":"2 51889  53.2176 159.3173 0002479  57.3287 350.0904 15.08847938  1308","REF_FRAME":"TEME","EPHEMERIS_TYPE":"0","RA_OF_ASC_NODE":"159.3173","CENTER_NAME":"EARTH","OBJECT_NAME":"STARLINK-3547","EPOCH":"2022-07-29T22:00:00.999936","RCS_SIZE":"LARGE","DECAY_DATE":null,"ELEMENT_SET_NO":"999","SITE":"AFETR","MEAN_ELEMENT_THEORY":"SGP4","REV_AT_EPOCH":"130","BSTAR":"-0.00039958000000","MEAN_MOTION_DOT":"-0.00006644","MEAN_ANOMALY":"350.0904","TIME_SYSTEM":"UTC","INCLINATION":"53.2176","CLASSIFICATION_TYPE":"U","SEMIMAJOR_AXIS":"6917.856","OBJECT_TYPE":"PAYLOAD","NORAD_CAT_ID":"51889","FILE":"3524848","PERIAPSIS":"538.006","ECCENTRICITY":"0.00024790","COUNTRY_CODE":"US","APOAPSIS":"541.436","ARG_OF_PERICENTER":"57.3287","TLE_LINE1":"1 51889U 22022AP  22210.91667824 -.00006644  00000-0 -39958-3 0  9998","PERIOD":"95.437","OBJECT_ID":"2022-022AP","MEAN_MOTION_DDOT":"0.0000000000000","MEAN_MOTION":"15.08847938","LAUNCH_DATE":"2022-03-03","GP_ID":"209134694"},{"LAUNCH_DATE":"2022-03-03","GP_ID":"209135429","MEAN_MOTION":"15.08849184","MEAN_MOTION_DDOT":"0.0000000000000","OBJECT_ID":"2022-022AQ","PERIOD":"95.437","TLE_LINE1":"1 51890U 22022AQ  22210.91667824 -.00004976  00000-0 -29467-3 0  9990","ARG_OF_PERICENTER":"57.9691","APOAPSIS":"541.396","COUNTRY_CODE":"US","PERIAPSIS":"538.039","FILE":"3524848","ECCENTRICITY":"0.00024260","NORAD_CAT_ID":"51890","OBJECT_TYPE":"PAYLOAD","SEMIMAJOR_AXIS":"6917.852","CLASSIFICATION_TYPE":"U","INCLINATION":"53.2174","TIME_SYSTEM":"UTC","MEAN_ANOMALY":"309.4610","MEAN_MOTION_DOT":"-0.00004976","BSTAR":"-0.00029467000000","REV_AT_EPOCH":"130","MEAN_ELEMENT_THEORY":"SGP4","SITE":"AFETR","ELEMENT_SET_NO":"999","DECAY_DATE":null,"RCS_SIZE":"LARGE","EPOCH":"2022-07-29T22:00:00.999936","OBJECT_NAME":"STARLINK-3519","CENTER_NAME":"EARTH","RA_OF_ASC_NODE":"159.3217","EPHEMERIS_TYPE":"0","REF_FRAME":"TEME","TLE_LINE2":"2 51890  53.2174 159.3217 0002426  57.9691 309.4610 15.08849184  1301"},{"DECAY_DATE":null,"ELEMENT_SET_NO":"999","OBJECT_NAME":"STARLINK-3549","RCS_SIZE":"LARGE","EPOCH":"2022-07-29T22:00:00.999936","RA_OF_ASC_NODE":"159.3106","EPHEMERIS_TYPE":"0","CENTER_NAME":"EARTH","TLE_LINE2":"2 51891  53.2177 159.3106 0002285  62.6983   4.7381 15.08838064  1307","REF_FRAME":"TEME","MEAN_MOTION":"15.08838064","MEAN_MOTION_DDOT":"0.0000000000000","LAUNCH_DATE":"2022-03-03","GP_ID":"209134195","PERIOD":"95.438","TLE_LINE1":"1 51891U 22022AR  22210.91667824 -.00006990  00000-0 -42148-3 0  9990","APOAPSIS":"541.332","ARG_OF_PERICENTER":"62.6983","OBJECT_ID":"2022-022AR","NORAD_CAT_ID":"51891","OBJECT_TYPE":"PAYLOAD","SEMIMAJOR_AXIS":"6917.886","CLASSIFICATION_TYPE":"U","INCLINATION":"53.2177","COUNTRY_CODE":"US","ECCENTRICITY":"0.00022850","FILE":"3524848","PERIAPSIS":"538.171","REV_AT_EPOCH":"130","MEAN_ELEMENT_THEORY":"SGP4","SITE":"AFETR","TIME_SYSTEM":"UTC","MEAN_ANOMALY":"4.7381","BSTAR":"-0.00042148000000","MEAN_MOTION_DOT":"-0.00006990"},{"APOAPSIS":"541.387","ARG_OF_PERICENTER":"58.1246","PERIOD":"95.437","TLE_LINE1":"1 51892U 22022AS  22210.91667824 -.00045319  00000-0 -28459-2 0  9997","OBJECT_ID":"2022-022AS","MEAN_MOTION_DDOT":"0.0000000000000","MEAN_MOTION":"15.08856607","LAUNCH_DATE":"2022-03-03","GP_ID":"209134445","SITE":"AFETR","MEAN_ELEMENT_THEORY":"SGP4","REV_AT_EPOCH":"130","BSTAR":"-0.00284590000000","MEAN_MOTION_DOT":"-0.00045319","MEAN_ANOMALY":"329.3423","TIME_SYSTEM":"UTC","INCLINATION":"53.2182","CLASSIFICATION_TYPE":"U","SEMIMAJOR_AXIS":"6917.830","OBJECT_TYPE":"PAYLOAD","NORAD_CAT_ID":"51892","ECCENTRICITY":"0.00024470","FILE":"3524848","PERIAPSIS":"538.002","COUNTRY_CODE":"US","OBJECT_NAME":"STARLINK-3587","EPOCH":"2022-07-29T22:00:00.999936","RCS_SIZE":"LARGE","DECAY_DATE":null,"ELEMENT_SET_NO":"999","TLE_LINE2":"2 51892  53.2182 159.3208 0002447  58.1246 329.3423 15.08856607  1305","REF_FRAME":"TEME","EPHEMERIS_TYPE":"0","RA_OF_ASC_NODE":"159.3208","CENTER_NAME":"EARTH"},{"TLE_LINE1":"1 51893U 22022AT  22210.91667824 -.00007137  00000-0 -43070-3 0  9991","PERIOD":"95.437","APOAPSIS":"541.124","ARG_OF_PERICENTER":"61.1430","OBJECT_ID":"2022-022AT","MEAN_MOTION":"15.08844968","MEAN_MOTION_DDOT":"0.0000000000000","LAUNCH_DATE":"2022-03-03","GP_ID":"209135194","REV_AT_EPOCH":"130","MEAN_ELEMENT_THEORY":"SGP4","SITE":"AFETR","TIME_SYSTEM":"UTC","MEAN_ANOMALY":"46.2949","BSTAR":"-0.00043070000000","MEAN_MOTION_DOT":"-0.00007137","OBJECT_TYPE":"PAYLOAD","NORAD_CAT_ID":"51893","SEMIMAJOR_AXIS":"6917.865","CLASSIFICATION_TYPE":"U","INCLINATION":"53.2179","COUNTRY_CODE":"US","FILE":"3524848","ECCENTRICITY":"0.00020150","PERIAPSIS":"538.336","OBJECT_NAME":"STARLINK-3579","RCS_SIZE":"LARGE","EPOCH":"2022-07-29T22:00:00.999936","DECAY_DATE":null,"ELEMENT_SET_NO":"999","TLE_LINE2":"2 51893  53.2179 159.3078 0002015  61.1430  46.2949 15.08844968  1302","REF_FRAME":"TEME","RA_OF_ASC_NODE":"159.3078","EPHEMERIS_TYPE":"0","CENTER_NAME":"EARTH"},{"CENTER_NAME":"EARTH","EPHEMERIS_TYPE":"0","RA_OF_ASC_NODE":"159.3106","REF_FRAME":"TEME","TLE_LINE2":"2 51894  53.2182 159.3106 0002078  54.1979  33.2528 15.08834647  1300","ELEMENT_SET_NO":"999","DECAY_DATE":null,"EPOCH":"2022-07-29T22:00:00.999936","RCS_SIZE":"LARGE","OBJECT_NAME":"STARLINK-3595","PERIAPSIS":"538.324","FILE":"3524848","ECCENTRICITY":"0.00020780","COUNTRY_CODE":"US","CLASSIFICATION_TYPE":"U","INCLINATION":"53.2182","OBJECT_TYPE":"PAYLOAD","SEMIMAJOR_AXIS":"6917.897","NORAD_CAT_ID":"51894","MEAN_MOTION_DOT":"-0.00007423","BSTAR":"-0.00044879000000","TIME_SYSTEM":"UTC","MEAN_ANOMALY":"33.2528","MEAN_ELEMENT_THEORY":"SGP4","SITE":"AFETR","REV_AT_EPOCH":"130","LAUNCH_DATE":"2022-03-03","GP_ID":"209134930","MEAN_MOTION_DDOT":"0.0000000000000","MEAN_MOTION":"15.08834647","OBJECT_ID":"2022-022AU","ARG_OF_PERICENTER":"54.1979","APOAPSIS":"541.199","PERIOD":"95.438","TLE_LINE1":"1 51894U 22022AU  22210.91667824 -.00007423  00000-0 -44879-3 0  9998"},{"PERIAPSIS":"538.436","FILE":"3524848","ECCENTRICITY":"0.00018940","COUNTRY_CODE":"US","INCLINATION":"53.2177","CLASSIFICATION_TYPE":"U","OBJECT_TYPE":"PAYLOAD","NORAD_CAT_ID":"51895","SEMIMAJOR_AXIS":"6917.882","MEAN_MOTION_DOT":"-0.00006705","BSTAR":"-0.00040358000000","MEAN_ANOMALY":"74.5956","TIME_SYSTEM":"UTC","SITE":"AFETR","MEAN_ELEMENT_THEORY":"SGP4","REV_AT_EPOCH":"130","LAUNCH_DATE":"2022-03-03","GP_ID":"209133696","MEAN_MOTION_DDOT":"0.0000000000000","MEAN_MOTION":"15.08839593","OBJECT_ID":"2022-022AV","ARG_OF_PERICENTER":"52.8747","APOAPSIS":"541.057","PERIOD":"95.438","TLE_LINE1":"1 51895U 22022AV  22210.91667824 -.00006705  00000-0 -40358-3 0  9999","CENTER_NAME":"EARTH","EPHEMERIS_TYPE":"0","RA_OF_ASC_NODE":"159.3073","REF_FRAME":"TEME","TLE_LINE2":"2 51895  53.2177 159.3073 0001894  52.8747  74.5956 15.08839593  1309","ELEMENT_SET_NO":"999","DECAY_DATE":null,"EPOCH":"2022-07-29T22:00:00.999936","RCS_SIZE":"LARGE","OBJECT_NAME":"STARLINK-3594"},{"DECAY_DATE":null,"ELEMENT_SET_NO":"999","OBJECT_NAME":"STARLINK-3593","RCS_SIZE":"LARGE","EPOCH":"2022-07-29T22:00:00.999936","RA_OF_ASC_NODE":"159.3066","EPHEMERIS_TYPE":"0","CENTER_NAME":"EARTH","TLE_LINE2":"2 51896  53.2173 159.3066 0002271  49.0682  73.0675 15.08840284  1305","REF_FRAME":"TEME","MEAN_MOTION":"15.08840284","MEAN_MOTION_DDOT":"0.0000000000000","GP_ID":"209133946","LAUNCH_DATE":"2022-03-03","TLE_LINE1":"1 51896U 22022AW  22210.91667824 -.00007194  00000-0 -43430-3 0  9997","PERIOD":"95.438","ARG_OF_PERICENTER":"49.0682","APOAPSIS":"541.316","OBJECT_ID":"2022-022AW","OBJECT_TYPE":"PAYLOAD","NORAD_CAT_ID":"51896","SEMIMAJOR_AXIS":"6917.880","CLASSIFICATION_TYPE":"U","INCLINATION":"53.2173","COUNTRY_CODE":"US","FILE":"3524848","PERIAPSIS":"538.173","ECCENTRICITY":"0.00022710","REV_AT_EPOCH":"130","MEAN_ELEMENT_THEORY":"SGP4","SITE":"AFETR","TIME_SYSTEM":"UTC","MEAN_ANOMALY":"73.0675","BSTAR":"-0.00043430000000","MEAN_MOTION_DOT":"-0.00007194"}];
